[
  {
    "OBJECT_NAME": "STARLINK-30504",
    "OBJECT_ID": "23151S",
    "EPOCH": "2025-11-11T08:00:03.000384",
    "MEAN_MOTION": 15.2790415,
    "ECCENTRICITY": 0.0003538,
    "INCLINATION": 42.9998,
    "RA_OF_ASC_NODE": 182.6943,
    "ARG_OF_PERICENTER": 236.8712,
    "MEAN_ANOMALY": 33.3357,
    "EPHEMERIS_TYPE": 0,
    "CLASSIFICATION_TYPE": "U",
    "NORAD_CAT_ID": 57980,
    "ELEMENT_SET_NO": 999,
    "REV_AT_EPOCH": 582,
    "BSTAR": 0.0026019,
    "MEAN_MOTION_DOT": 0.00072771,
    "MEAN_MOTION_DDOT": 0.0,
    "TLE_LINE1": "1 57980U 23151S   25315.33336806  .00072771  00000+0  26019-2 0  9992",
    "TLE_LINE2": "2 57980  42.9998 182.6943 0003538 236.8712  33.3357 15.27904150  5826",
    "COMMENT": "Grouped by shell and plane from TLE"
  },
  {
    "OBJECT_NAME": "STARLINK-31017",
    "OBJECT_ID": "23191H",
    "EPOCH": "2025-11-11T01:01:54.189984",
    "MEAN_MOTION": 15.2757226,
    "ECCENTRICITY": 0.0001463,
    "INCLINATION": 42.999,
    "RA_OF_ASC_NODE": 181.2099,
    "ARG_OF_PERICENTER": 268.9271,
    "MEAN_ANOMALY": 91.1413,
    "EPHEMERIS_TYPE": 0,
    "CLASSIFICATION_TYPE": "U",
    "NORAD_CAT_ID": 58515,
    "ELEMENT_SET_NO": 999,
    "REV_AT_EPOCH": 11003,
    "BSTAR": 0.0,
    "MEAN_MOTION_DOT": -1.098e-05,
    "MEAN_MOTION_DDOT": 0.0,
    "TLE_LINE1": "1 58515U 23191H   25315.04298831 -.00001098  00000+0 -30384-4 0  9992",
    "TLE_LINE2": "2 58515  42.9990 181.2099 0001463 268.9271  91.1413 15.27572260110039",
    "COMMENT": "Grouped by shell and plane from TLE"
  },
  {
    "OBJECT_NAME": "STARLINK-31047",
    "OBJECT_ID": "24011U",
    "EPOCH": "2025-11-11T02:01:03.465696",
    "MEAN_MOTION": 15.30312125,
    "ECCENTRICITY": 0.0001804,
    "INCLINATION": 53.1588,
    "RA_OF_ASC_NODE": 189.0412,
    "ARG_OF_PERICENTER": 58.4985,
    "MEAN_ANOMALY": 301.6191,
    "EPHEMERIS_TYPE": 0,
    "CLASSIFICATION_TYPE": "U",
    "NORAD_CAT_ID": 58783,
    "ELEMENT_SET_NO": 999,
    "REV_AT_EPOCH": 10233,
    "BSTAR": 0.0,
    "MEAN_MOTION_DOT": -0.00020263,
    "MEAN_MOTION_DDOT": 0.0,
    "TLE_LINE1": "1 58783U 24011U   25315.08406789 -.00020263  00000+0 -67148-3 0  9990",
    "TLE_LINE2": "2 58783  53.1588 189.0412 0001804  58.4985 301.6191 15.30312125102333",
    "COMMENT": "Grouped by shell and plane from TLE"
  },
  {
    "OBJECT_NAME": "STARLINK-31487",
    "OBJECT_ID": "24056B",
    "EPOCH": "2025-11-11T00:35:59.379648",
    "MEAN_MOTION": 15.2758981,
    "ECCENTRICITY": 0.0002414,
    "INCLINATION": 43.001,
    "RA_OF_ASC_NODE": 181.0822,
    "ARG_OF_PERICENTER": 267.3092,
    "MEAN_ANOMALY": 92.7483,
    "EPHEMERIS_TYPE": 0,
    "CLASSIFICATION_TYPE": "U",
    "NORAD_CAT_ID": 59297,
    "ELEMENT_SET_NO": 999,
    "REV_AT_EPOCH": 9312,
    "BSTAR": 0.00016204,
    "MEAN_MOTION_DOT": 4.201e-05,
    "MEAN_MOTION_DDOT": 0.0,
    "TLE_LINE1": "1 59297U 24056B   25315.02499282  .00004201  00000+0  16204-3 0  9993",
    "TLE_LINE2": "2 59297  43.0010 181.0822 0002414 267.3092  92.7483 15.27589810 93128",
    "COMMENT": "Grouped by shell and plane from TLE"
  },
  {
    "OBJECT_NAME": "STARLINK-31386",
    "OBJECT_ID": "24056C",
    "EPOCH": "2025-11-11T00:10:04.920960",
    "MEAN_MOTION": 15.27588113,
    "ECCENTRICITY": 4.73e-05,
    "INCLINATION": 43.001,
    "RA_OF_ASC_NODE": 180.9438,
    "ARG_OF_PERICENTER": 243.284,
    "MEAN_ANOMALY": 116.7964,
    "EPHEMERIS_TYPE": 0,
    "CLASSIFICATION_TYPE": "U",
    "NORAD_CAT_ID": 59298,
    "ELEMENT_SET_NO": 999,
    "REV_AT_EPOCH": 9300,
    "BSTAR": 9.9888e-05,
    "MEAN_MOTION_DOT": 2.489e-05,
    "MEAN_MOTION_DDOT": 0.0,
    "TLE_LINE1": "1 59298U 24056C   25315.00700140  .00002489  00000+0  99888-4 0  9996",
    "TLE_LINE2": "2 59298  43.0010 180.9438 0000473 243.2840 116.7964 15.27588113 93000",
    "COMMENT": "Grouped by shell and plane from TLE"
  },
  {
    "OBJECT_NAME": "STARLINK-31489",
    "OBJECT_ID": "24056E",
    "EPOCH": "2025-11-10T23:47:52.323648",
    "MEAN_MOTION": 15.27593376,
    "ECCENTRICITY": 0.0001576,
    "INCLINATION": 43.0043,
    "RA_OF_ASC_NODE": 180.8237,
    "ARG_OF_PERICENTER": 270.3494,
    "MEAN_ANOMALY": 89.7177,
    "EPHEMERIS_TYPE": 0,
    "CLASSIFICATION_TYPE": "U",
    "NORAD_CAT_ID": 59300,
    "ELEMENT_SET_NO": 999,
    "REV_AT_EPOCH": 9300,
    "BSTAR": 1.3991000000000002e-05,
    "MEAN_MOTION_DOT": 1.23e-06,
    "MEAN_MOTION_DDOT": 0.0,
    "TLE_LINE1": "1 59300U 24056E   25314.99157782  .00000123  00000+0  13991-4 0  9999",
    "TLE_LINE2": "2 59300  43.0043 180.8237 0001576 270.3494  89.7177 15.27593376 93009",
    "COMMENT": "Grouped by shell and plane from TLE"
  },
  {
    "OBJECT_NAME": "STARLINK-31447",
    "OBJECT_ID": "24056G",
    "EPOCH": "2025-11-11T00:13:47.741376",
    "MEAN_MOTION": 15.27579561,
    "ECCENTRICITY": 0.0001108,
    "INCLINATION": 42.9947,
    "RA_OF_ASC_NODE": 180.9663,
    "ARG_OF_PERICENTER": 67.5249,
    "MEAN_ANOMALY": 292.572,
    "EPHEMERIS_TYPE": 0,
    "CLASSIFICATION_TYPE": "U",
    "NORAD_CAT_ID": 59302,
    "ELEMENT_SET_NO": 999,
    "REV_AT_EPOCH": 9300,
    "BSTAR": 0.00010691,
    "MEAN_MOTION_DOT": 2.681e-05,
    "MEAN_MOTION_DDOT": 0.0,
    "TLE_LINE1": "1 59302U 24056G   25315.00958034  .00002681  00000+0  10691-3 0  9997",
    "TLE_LINE2": "2 59302  42.9947 180.9663 0001108  67.5249 292.5720 15.27579561 93009",
    "COMMENT": "Grouped by shell and plane from TLE"
  },
  {
    "OBJECT_NAME": "STARLINK-31504",
    "OBJECT_ID": "24056H",
    "EPOCH": "2025-11-11T00:24:53.243424",
    "MEAN_MOTION": 15.27584449,
    "ECCENTRICITY": 6.26e-05,
    "INCLINATION": 42.9994,
    "RA_OF_ASC_NODE": 181.022,
    "ARG_OF_PERICENTER": 284.6747,
    "MEAN_ANOMALY": 75.4036,
    "EPHEMERIS_TYPE": 0,
    "CLASSIFICATION_TYPE": "U",
    "NORAD_CAT_ID": 59303,
    "ELEMENT_SET_NO": 999,
    "REV_AT_EPOCH": 9300,
    "BSTAR": 5.6994000000000004e-05,
    "MEAN_MOTION_DOT": 1.307e-05,
    "MEAN_MOTION_DDOT": 0.0,
    "TLE_LINE1": "1 59303U 24056H   25315.01728291  .00001307  00000+0  56994-4 0  9990",
    "TLE_LINE2": "2 59303  42.9994 181.0220 0000626 284.6747  75.4036 15.27584449 93001",
    "COMMENT": "Grouped by shell and plane from TLE"
  },
  {
    "OBJECT_NAME": "STARLINK-31500",
    "OBJECT_ID": "24056K",
    "EPOCH": "2025-11-11T00:19:20.650080",
    "MEAN_MOTION": 15.27570115,
    "ECCENTRICITY": 0.0001059,
    "INCLINATION": 42.9997,
    "RA_OF_ASC_NODE": 180.9916,
    "ARG_OF_PERICENTER": 281.8893,
    "MEAN_ANOMALY": 78.184,
    "EPHEMERIS_TYPE": 0,
    "CLASSIFICATION_TYPE": "U",
    "NORAD_CAT_ID": 59305,
    "ELEMENT_SET_NO": 999,
    "REV_AT_EPOCH": 9300,
    "BSTAR": 0.0,
    "MEAN_MOTION_DOT": -2.695e-05,
    "MEAN_MOTION_DDOT": 0.0,
    "TLE_LINE1": "1 59305U 24056K   25315.01343345 -.00002695  00000+0 -88467-4 0  9998",
    "TLE_LINE2": "2 59305  42.9997 180.9916 0001059 281.8893  78.1840 15.27570115 93006",
    "COMMENT": "Grouped by shell and plane from TLE"
  },
  {
    "OBJECT_NAME": "STARLINK-31480",
    "OBJECT_ID": "24056L",
    "EPOCH": "2025-11-11T01:33:08.115264",
    "MEAN_MOTION": 15.27588288,
    "ECCENTRICITY": 5.07e-05,
    "INCLINATION": 42.9993,
    "RA_OF_ASC_NODE": 180.5146,
    "ARG_OF_PERICENTER": 290.4594,
    "MEAN_ANOMALY": 69.6203,
    "EPHEMERIS_TYPE": 0,
    "CLASSIFICATION_TYPE": "U",
    "NORAD_CAT_ID": 59306,
    "ELEMENT_SET_NO": 999,
    "REV_AT_EPOCH": 9301,
    "BSTAR": 0.00013550000000000001,
    "MEAN_MOTION_DOT": 3.47e-05,
    "MEAN_MOTION_DDOT": 0.0,
    "TLE_LINE1": "1 59306U 24056L   25315.06467726  .00003470  00000+0  13550-3 0  9994",
    "TLE_LINE2": "2 59306  42.9993 180.5146 0000507 290.4594  69.6203 15.27588288 93014",
    "COMMENT": "Grouped by shell and plane from TLE"
  },
  {
    "OBJECT_NAME": "STARLINK-31282",
    "OBJECT_ID": "24056M",
    "EPOCH": "2025-11-11T00:30:25.830720",
    "MEAN_MOTION": 15.27589984,
    "ECCENTRICITY": 8.19e-05,
    "INCLINATION": 43.0003,
    "RA_OF_ASC_NODE": 181.0499,
    "ARG_OF_PERICENTER": 273.5182,
    "MEAN_ANOMALY": 86.5576,
    "EPHEMERIS_TYPE": 0,
    "CLASSIFICATION_TYPE": "U",
    "NORAD_CAT_ID": 59307,
    "ELEMENT_SET_NO": 999,
    "REV_AT_EPOCH": 9300,
    "BSTAR": 8.5546e-05,
    "MEAN_MOTION_DOT": 2.094e-05,
    "MEAN_MOTION_DDOT": 0.0,
    "TLE_LINE1": "1 59307U 24056M   25315.02113230  .00002094  00000+0  85546-4 0  9995",
    "TLE_LINE2": "2 59307  43.0003 181.0499 0000819 273.5182  86.5576 15.27589984 93001",
    "COMMENT": "Grouped by shell and plane from TLE"
  },
  {
    "OBJECT_NAME": "STARLINK-31485",
    "OBJECT_ID": "24056N",
    "EPOCH": "2025-11-11T00:41:32.490528",
    "MEAN_MOTION": 15.27581727,
    "ECCENTRICITY": 0.0001313,
    "INCLINATION": 43.0028,
    "RA_OF_ASC_NODE": 181.105,
    "ARG_OF_PERICENTER": 270.1071,
    "MEAN_ANOMALY": 89.963,
    "EPHEMERIS_TYPE": 0,
    "CLASSIFICATION_TYPE": "U",
    "NORAD_CAT_ID": 59308,
    "ELEMENT_SET_NO": 999,
    "REV_AT_EPOCH": 9300,
    "BSTAR": 0.00014602000000000001,
    "MEAN_MOTION_DOT": 3.758e-05,
    "MEAN_MOTION_DDOT": 0.0,
    "TLE_LINE1": "1 59308U 24056N   25315.02884827  .00003758  00000+0  14602-3 0  9995",
    "TLE_LINE2": "2 59308  43.0028 181.1050 0001313 270.1071  89.9630 15.27581727 93008",
    "COMMENT": "Grouped by shell and plane from TLE"
  },
  {
    "OBJECT_NAME": "STARLINK-31445",
    "OBJECT_ID": "24056S",
    "EPOCH": "2025-11-11T00:30:52.483392",
    "MEAN_MOTION": 15.27614387,
    "ECCENTRICITY": 0.0001404,
    "INCLINATION": 43.0019,
    "RA_OF_ASC_NODE": 187.9704,
    "ARG_OF_PERICENTER": 265.1961,
    "MEAN_ANOMALY": 94.8731,
    "EPHEMERIS_TYPE": 0,
    "CLASSIFICATION_TYPE": "U",
    "NORAD_CAT_ID": 59312,
    "ELEMENT_SET_NO": 999,
    "REV_AT_EPOCH": 9292,
    "BSTAR": 0.0,
    "MEAN_MOTION_DOT": -2.672e-05,
    "MEAN_MOTION_DDOT": 0.0,
    "TLE_LINE1": "1 59312U 24056S   25315.02144078 -.00002672  00000+0 -87519-4 0  9991",
    "TLE_LINE2": "2 59312  43.0019 187.9704 0001404 265.1961  94.8731 15.27614387 92922",
    "COMMENT": "Grouped by shell and plane from TLE"
  }
]